STARLINK-2006
1 17601C 21009BF  21326.13315918  .00010017  00000-0  67128-3 0  3265
2 17601  53.0534 203.1400 0001959  70.2260 337.1662 15.06380514    13
